[{"OBJECT_NAME":"STARLINK-34720","OBJECT_ID":"2025-259AD","EPOCH":"2026-03-09T22:08:57.300288","MEAN_MOTION":15.27603998,"ECCENTRICITY":0.0002116,"INCLINATION":42.9991,"RA_OF_ASC_NODE":273.3072,"ARG_OF_PERICENTER":251.1839,"MEAN_ANOMALY":108.8783,"EPHEMERIS_TYPE":0,"CLASSIFICATION_TYPE":"U","NORAD_CAT_ID":66449,"ELEMENT_SET_NO":999,"REV_AT_EPOCH":1941,"BSTAR":0.0015886871,"MEAN_MOTION_DOT":0.00043748,"MEAN_MOTION_DDOT":0},{"OBJECT_NAME":"CZ-2F DEB","OBJECT_ID":"2026-024E","EPOCH":"2026-03-09T06:46:05.636352","MEAN_MOTION":15.25893319,"ECCENTRICITY":0.0230643,"INCLINATION":50.3206,"RA_OF_ASC_NODE":20.6889,"ARG_OF_PERICENTER":278.3013,"MEAN_ANOMALY":79.1857,"EPHEMERIS_TYPE":0,"CLASSIFICATION_TYPE":"U","NORAD_CAT_ID":67718,"ELEMENT_SET_NO":999,"REV_AT_EPOCH":457,"BSTAR":0.0044193489,"MEAN_MOTION_DOT":0.00260029,"MEAN_MOTION_DDOT":0}]
